GLOBALSTAR M035 [-]     
1 25851U 99037A   23296.78705580 -.00000071  00000+0 -27607-3 0  9995
2 25851  51.9963 318.3561 0013785  85.1495  85.4680 11.04526469 29694
GLOBALSTAR M032 [-]     
1 25852U 99037B   23296.93073762 -.00000072  00000+0 -17330-3 0  9996
2 25852  51.9932 184.7882 0007203 231.2097 128.8060 11.19045121 67369
GLOBALSTAR M051 [-]     
1 25853U 99037C   23296.61451481 -.00000069  00000+0  69780-4 0  9992
2 25853  51.9814  54.5029 0001553 191.8563 168.2212 11.42192954 63532
GLOBALSTAR M030 [-]     
1 25854U 99037D   23296.19205935 -.00000116  00000+0 -86206-3 0  9992
2 25854  51.9870 259.9676 0004804  42.5674 317.5514 11.55090787 80461
GLOBALSTAR M048 [-]     
1 25872U 99041A   23296.84893312 -.00000044  00000+0  70734-3 0  9999
2 25872  51.9385 325.6821 0013175 221.6279 309.3386 11.33840420 56548
GLOBALSTAR M026 [-]     
1 25873U 99041B   23295.69948470  .00000007  00000+0  26044-2 0  9990
2 25873  51.9996  85.0992 0001262  16.9513  78.3614 11.06828733 81664
GLOBALSTAR M043 [-]     
1 25874U 99041C   23296.58569495 -.00000072  00000+0 -11324-3 0  9996
2 25874  51.9422  49.9299 0013103   6.9561   6.6371 11.25675352 55019
GLOBALSTAR M028 [-]     
1 25875U 99041D   23296.91475827 -.00000082  00000+0  11347-3 0  9994
2 25875  51.9614 188.8709 0062899 203.0866 156.7164 12.50542679114822
